[{"OBJECT_NAME":"PRAETORIAN SDA_617","OBJECT_ID":"2025-203R","EPOCH":"2026-03-03T04:14:31.369344","MEAN_MOTION":13.83190466,"ECCENTRICITY":0.000869,"INCLINATION":81.3013,"RA_OF_ASC_NODE":108.9151,"ARG_OF_PERICENTER":116.9151,"MEAN_ANOMALY":243.2894,"EPHEMERIS_TYPE":0,"CLASSIFICATION_TYPE":"U","NORAD_CAT_ID":65580,"ELEMENT_SET_NO":999,"REV_AT_EPOCH":2403,"BSTAR":3.8959e-5,"MEAN_MOTION_DOT":5.5e-7,"MEAN_MOTION_DDOT":0},{"OBJECT_NAME":"PRAETORIAN SDA_618","OBJECT_ID":"2025-203S","EPOCH":"2026-03-03T03:00:36.516096","MEAN_MOTION":13.8476149,"ECCENTRICITY":0.0010923,"INCLINATION":81.2998,"RA_OF_ASC_NODE":108.8189,"ARG_OF_PERICENTER":118.5456,"MEAN_ANOMALY":241.6801,"EPHEMERIS_TYPE":0,"CLASSIFICATION_TYPE":"U","NORAD_CAT_ID":65581,"ELEMENT_SET_NO":999,"REV_AT_EPOCH":2403,"BSTAR":0.00024059,"MEAN_MOTION_DOT":2.83e-6,"MEAN_MOTION_DDOT":0},{"OBJECT_NAME":"PRAETORIAN SDA_619","OBJECT_ID":"2025-203T","EPOCH":"2026-03-03T04:04:19.301376","MEAN_MOTION":13.83930142,"ECCENTRICITY":0.0009331,"INCLINATION":81.3018,"RA_OF_ASC_NODE":108.9126,"ARG_OF_PERICENTER":116.7625,"MEAN_ANOMALY":243.4487,"EPHEMERIS_TYPE":0,"CLASSIFICATION_TYPE":"U","NORAD_CAT_ID":65582,"ELEMENT_SET_NO":999,"REV_AT_EPOCH":2466,"BSTAR":0.00025943,"MEAN_MOTION_DOT":3.0e-6,"MEAN_MOTION_DDOT":0},{"OBJECT_NAME":"PRAETORIAN SDA_620","OBJECT_ID":"2025-203U","EPOCH":"2026-03-03T04:15:54.746208","MEAN_MOTION":13.83704843,"ECCENTRICITY":0.000886,"INCLINATION":81.3006,"RA_OF_ASC_NODE":108.8993,"ARG_OF_PERICENTER":115.5592,"MEAN_ANOMALY":244.6481,"EPHEMERIS_TYPE":0,"CLASSIFICATION_TYPE":"U","NORAD_CAT_ID":65583,"ELEMENT_SET_NO":999,"REV_AT_EPOCH":2403,"BSTAR":0.00033846,"MEAN_MOTION_DOT":3.86e-6,"MEAN_MOTION_DDOT":0},{"OBJECT_NAME":"PRAETORIAN SDA_621","OBJECT_ID":"2025-203V","EPOCH":"2026-03-03T03:53:31.850880","MEAN_MOTION":13.83786438,"ECCENTRICITY":0.0008653,"INCLINATION":81.2996,"RA_OF_ASC_NODE":108.8647,"ARG_OF_PERICENTER":111.7153,"MEAN_ANOMALY":248.4925,"EPHEMERIS_TYPE":0,"CLASSIFICATION_TYPE":"U","NORAD_CAT_ID":65584,"ELEMENT_SET_NO":999,"REV_AT_EPOCH":2403,"BSTAR":5.8994e-5,"MEAN_MOTION_DOT":7.7e-7,"MEAN_MOTION_DDOT":0},{"OBJECT_NAME":"PRAETORIAN SDA_601","OBJECT_ID":"2025-203W","EPOCH":"2026-03-03T04:08:20.395392","MEAN_MOTION":13.83483883,"ECCENTRICITY":0.0006464,"INCLINATION":81.3013,"RA_OF_ASC_NODE":109.0641,"ARG_OF_PERICENTER":124.1414,"MEAN_ANOMALY":236.0356,"EPHEMERIS_TYPE":0,"CLASSIFICATION_TYPE":"U","NORAD_CAT_ID":65585,"ELEMENT_SET_NO":999,"REV_AT_EPOCH":2402,"BSTAR":0.00010067,"MEAN_MOTION_DOT":1.23e-6,"MEAN_MOTION_DDOT":0}]
