PRAETORIAN SDA_617      
1 65580U 25203R   26062.17675196  .00000055  00000+0  38959-4 0  9991
2 65580  81.3013 108.9151 0008690 116.9151 243.2894 13.83190466 24036
PRAETORIAN SDA_618      
1 65581U 25203S   26062.12542264  .00000283  00000+0  24059-3 0  9994
2 65581  81.2998 108.8189 0010923 118.5456 241.6801 13.84761490 24038
PRAETORIAN SDA_619      
1 65582U 25203T   26062.16966784  .00000300  00000+0  25943-3 0  9999
2 65582  81.3018 108.9126 0009331 116.7625 243.4487 13.83930142 24664
PRAETORIAN SDA_620      
1 65583U 25203U   26062.17771697  .00000386  00000+0  33846-3 0  9993
2 65583  81.3006 108.8993 0008860 115.5592 244.6481 13.83704843 24034
PRAETORIAN SDA_621      
1 65584U 25203V   26062.16217420  .00000077  00000+0  58994-4 0  9991
2 65584  81.2996 108.8647 0008653 111.7153 248.4925 13.83786438 24034
PRAETORIAN SDA_601      
1 65585U 25203W   26062.17245828  .00000123  00000+0  10067-3 0  9996
2 65585  81.3013 109.0641 0006464 124.1414 236.0356 13.83483883 24027
